LEMUR-2-MYRA            
1 66787U 25276EC  26194.73611130  .00003504  00000+0  28113-3 0  9999
2 66787  97.5223 264.7511 0018660  58.6912 301.6136 15.00579015 34192
LEMUR-2 FIKRETDENGIZ    
1 67363U 26004A   26194.55441794  .00002288  00000+0  25184-3 0  9990
2 67363  97.8023 192.7112 0010286  60.4075 299.8165 14.88510256 27209
TWILIGHT-1 OBJECT B     
1 67364U 26004B   26194.52351148  .00000944  00000+0  10933-3 0  9994
2 67364  97.8074 192.6825 0009855  50.7792 309.4298 14.87790232 27202
LEMUR-2-MARIO-SOUSA     
1 67365U 26004C   26194.53451130  .00002607  00000+0  28474-3 0  9995
2 67365  97.7996 192.6866 0009922  61.6788 298.5429 14.88718766 27219
LEMUR-2-SONNENBLUME     
1 67367U 26004E   26194.53705981  .00001477  00000+0  16492-3 0  9994
2 67367  97.8000 192.6626 0009486  62.7623 297.4559 14.88448243 27219
LEMUR-2-WOBLER          
1 67368U 26004F   26194.79547720  .00002080  00000+0  22857-3 0  9991
2 67368  97.8046 193.0665 0009556  54.1802 306.0302 14.88691368 27255
LEMUR-2-GRAM-E-SUE      
1 67370U 26004H   26194.51863047  .00001269  00000+0  14215-3 0  9994
2 67370  97.7986 192.6609 0008700  65.4084 294.8038 14.88584866 27210
LEMUR-2-KATIE           
1 67387U 26004AA  26194.54460529  .00002971  00000+0  31190-3 0  9995
2 67387  97.8042 193.2324 0003635  38.0849 322.0625 14.90242123 27238
LEMUR-2-HCS-BAZUS       
1 67388U 26004AB  26194.54297352  .00001614  00000+0  17207-3 0  9994
2 67388  97.8038 193.2094 0003154  36.4661 323.6771 14.90256181 27236
